{"fetched_at":"2026-07-21T07:07:08.250Z","source":"https://celestrak.org/NORAD/elements/gp.php?NAME=RADARSAT&FORMAT=JSON","constellation":"radarsat-2","records":[{"OBJECT_NAME":"RADARSAT-2","OBJECT_ID":"2007-061A","EPOCH":"2026-07-20T23:22:05.826720","CLASSIFICATION_TYPE":"U","MEAN_MOTION":14.29984256,"ECCENTRICITY":0.00013312,"INCLINATION":98.579,"RA_OF_ASC_NODE":208.424,"ARG_OF_PERICENTER":87.0662,"MEAN_ANOMALY":273.0672,"EPHEMERIS_TYPE":0,"NORAD_CAT_ID":32382,"ELEMENT_SET_NO":999,"REV_AT_EPOCH":97078,"BSTAR":0.000043743053,"MEAN_MOTION_DOT":6.9e-7,"MEAN_MOTION_DDOT":0}]}
